{
  "type": "FeatureCollection",
  "features": [
    {
      "type": "Feature",
      "properties": {
        "surveyNumber": "214/3",
        "village": "Bhadaini",
        "tehsil": "Sadar",
        "district": "Varanasi",
        "areaSqFt": 1856
      },
      "geometry": {
        "type": "Polygon",
        "coordinates": [
          [
            [82.87857, 25.26567],
            [82.87941, 25.26565],
            [82.87939, 25.26500],
            [82.87850, 25.26504],
            [82.87857, 25.26567]
          ]
        ]
      }
    }
  ]
}
